XRISM                   
1 57800U 23137A   23322.19534664  .00003586  00000+0  28494-3 0  9997
2 57800  31.0043 279.1965 0010515 269.0351  90.9079 14.98629856 10834
